[{"OBJECT_NAME":"HXMT (HUIYAN)","OBJECT_ID":"2017-034A","EPOCH":"2026-03-20T21:37:35.558400","MEAN_MOTION":15.17604872,"ECCENTRICITY":0.00328725,"INCLINATION":43.0146,"RA_OF_ASC_NODE":314.3371,"ARG_OF_PERICENTER":304.2164,"MEAN_ANOMALY":55.5571,"EPHEMERIS_TYPE":0,"CLASSIFICATION_TYPE":"U","NORAD_CAT_ID":42758,"ELEMENT_SET_NO":999,"REV_AT_EPOCH":48424,"BSTAR":0.00028154848,"MEAN_MOTION_DOT":5.604e-5,"MEAN_MOTION_DDOT":0},{"OBJECT_NAME":"SAOCOM 1A","OBJECT_ID":"2018-076A","EPOCH":"2026-03-20T23:12:52.142688","MEAN_MOTION":14.82153443,"ECCENTRICITY":0.00015175,"INCLINATION":97.8891,"RA_OF_ASC_NODE":267.9808,"ARG_OF_PERICENTER":85.2762,"MEAN_ANOMALY":274.8624,"EPHEMERIS_TYPE":0,"CLASSIFICATION_TYPE":"U","NORAD_CAT_ID":43641,"ELEMENT_SET_NO":999,"REV_AT_EPOCH":40303,"BSTAR":8.1881595e-5,"MEAN_MOTION_DOT":6.0e-6,"MEAN_MOTION_DDOT":0},{"OBJECT_NAME":"H-2A R/B","OBJECT_ID":"2018-084L","EPOCH":"2026-03-20T04:23:47.959008","MEAN_MOTION":15.41759166,"ECCENTRICITY":0.00245562,"INCLINATION":98.8714,"RA_OF_ASC_NODE":298.8177,"ARG_OF_PERICENTER":349.1904,"MEAN_ANOMALY":10.8807,"EPHEMERIS_TYPE":0,"CLASSIFICATION_TYPE":"U","NORAD_CAT_ID":43682,"ELEMENT_SET_NO":999,"REV_AT_EPOCH":40739,"BSTAR":0.00029373396,"MEAN_MOTION_DOT":0.00012444,"MEAN_MOTION_DDOT":0},{"OBJECT_NAME":"SAOCOM 1B","OBJECT_ID":"2020-059A","EPOCH":"2026-03-20T22:20:36.271104","MEAN_MOTION":14.82146859,"ECCENTRICITY":0.00014526,"INCLINATION":97.8889,"RA_OF_ASC_NODE":267.0428,"ARG_OF_PERICENTER":88.8349,"MEAN_ANOMALY":271.303,"EPHEMERIS_TYPE":0,"CLASSIFICATION_TYPE":"U","NORAD_CAT_ID":46265,"ELEMENT_SET_NO":999,"REV_AT_EPOCH":30041,"BSTAR":5.6954604e-5,"MEAN_MOTION_DOT":4.01e-6,"MEAN_MOTION_DDOT":0},{"OBJECT_NAME":"CSS (TIANHE)","OBJECT_ID":"2021-035A","EPOCH":"2026-03-20T14:12:38.552832","MEAN_MOTION":15.61215573,"ECCENTRICITY":0.00056376,"INCLINATION":41.4664,"RA_OF_ASC_NODE":141.796,"ARG_OF_PERICENTER":341.7172,"MEAN_ANOMALY":18.3464,"EPHEMERIS_TYPE":0,"CLASSIFICATION_TYPE":"U","NORAD_CAT_ID":48274,"ELEMENT_SET_NO":999,"REV_AT_EPOCH":27931,"BSTAR":0.00020859272,"MEAN_MOTION_DOT":0.0001789,"MEAN_MOTION_DDOT":0},{"OBJECT_NAME":"COSMOS 2550","OBJECT_ID":"2021-056A","EPOCH":"2026-03-20T16:01:39.963360","MEAN_MOTION":15.33831857,"ECCENTRICITY":0.00081995,"INCLINATION":67.1449,"RA_OF_ASC_NODE":7.6743,"ARG_OF_PERICENTER":268.9235,"MEAN_ANOMALY":91.098,"EPHEMERIS_TYPE":0,"CLASSIFICATION_TYPE":"U","NORAD_CAT_ID":48865,"ELEMENT_SET_NO":999,"REV_AT_EPOCH":26514,"BSTAR":1.25924e-7,"MEAN_MOTION_DOT":-1.88e-6,"MEAN_MOTION_DDOT":0},{"OBJECT_NAME":"CZ-2C R/B","OBJECT_ID":"2022-058K","EPOCH":"2026-03-20T19:47:42.393408","MEAN_MOTION":15.54982036,"ECCENTRICITY":0.00418384,"INCLINATION":50.1873,"RA_OF_ASC_NODE":260.9749,"ARG_OF_PERICENTER":248.3972,"MEAN_ANOMALY":111.2539,"EPHEMERIS_TYPE":0,"CLASSIFICATION_TYPE":"U","NORAD_CAT_ID":52794,"ELEMENT_SET_NO":999,"REV_AT_EPOCH":21186,"BSTAR":0.0004998607,"MEAN_MOTION_DOT":0.00035185,"MEAN_MOTION_DDOT":0},{"OBJECT_NAME":"CZ-2C R/B","OBJECT_ID":"2022-132E","EPOCH":"2026-03-20T23:08:43.073952","MEAN_MOTION":15.62830031,"ECCENTRICITY":0.00193718,"INCLINATION":97.296,"RA_OF_ASC_NODE":83.632,"ARG_OF_PERICENTER":55.4574,"MEAN_ANOMALY":304.851,"EPHEMERIS_TYPE":0,"CLASSIFICATION_TYPE":"U","NORAD_CAT_ID":54039,"ELEMENT_SET_NO":999,"REV_AT_EPOCH":19213,"BSTAR":0.00048429319,"MEAN_MOTION_DOT":0.00044064,"MEAN_MOTION_DDOT":0},{"OBJECT_NAME":"GSLV R/B","OBJECT_ID":"2022-138AN","EPOCH":"2026-03-20T22:51:15.594048","MEAN_MOTION":14.96843183,"ECCENTRICITY":0.00239894,"INCLINATION":87.3868,"RA_OF_ASC_NODE":162.5924,"ARG_OF_PERICENTER":109.1646,"MEAN_ANOMALY":251.2185,"EPHEMERIS_TYPE":0,"CLASSIFICATION_TYPE":"U","NORAD_CAT_ID":54149,"ELEMENT_SET_NO":999,"REV_AT_EPOCH":18561,"BSTAR":0.00022137539,"MEAN_MOTION_DOT":2.579e-5,"MEAN_MOTION_DDOT":0},{"OBJECT_NAME":"XRISM","OBJECT_ID":"2023-137A","EPOCH":"2026-03-20T19:12:36.106560","MEAN_MOTION":15.11615391,"ECCENTRICITY":0.00079559,"INCLINATION":31.0013,"RA_OF_ASC_NODE":211.7899,"ARG_OF_PERICENTER":150.882,"MEAN_ANOMALY":209.2263,"EPHEMERIS_TYPE":0,"CLASSIFICATION_TYPE":"U","NORAD_CAT_ID":57800,"ELEMENT_SET_NO":999,"REV_AT_EPOCH":13947,"BSTAR":0.00028850606,"MEAN_MOTION_DOT":5.123e-5,"MEAN_MOTION_DDOT":0},{"OBJECT_NAME":"ACS3","OBJECT_ID":"2024-077B","EPOCH":"2026-03-20T19:12:46.670688","MEAN_MOTION":13.90082374,"ECCENTRICITY":0.00690293,"INCLINATION":97.2013,"RA_OF_ASC_NODE":18.4159,"ARG_OF_PERICENTER":50.6048,"MEAN_ANOMALY":310.1202,"EPHEMERIS_TYPE":0,"CLASSIFICATION_TYPE":"U","NORAD_CAT_ID":59588,"ELEMENT_SET_NO":999,"REV_AT_EPOCH":9574,"BSTAR":0.014836544,"MEAN_MOTION_DOT":0.00018685,"MEAN_MOTION_DDOT":0},{"OBJECT_NAME":"SZ-21 MODULE","OBJECT_ID":"2025-246C","EPOCH":"2026-03-20T04:39:31.036608","MEAN_MOTION":15.69318212,"ECCENTRICITY":3.768e-5,"INCLINATION":41.4734,"RA_OF_ASC_NODE":138.6579,"ARG_OF_PERICENTER":257.1443,"MEAN_ANOMALY":102.9357,"EPHEMERIS_TYPE":0,"CLASSIFICATION_TYPE":"U","NORAD_CAT_ID":66515,"ELEMENT_SET_NO":999,"REV_AT_EPOCH":1972,"BSTAR":0.00021817617,"MEAN_MOTION_DOT":0.00026007,"MEAN_MOTION_DDOT":0}]
