HXMT (HUIYAN)           
1 42758U 17034A   26079.90110600  .00005604  00000+0  28155-3 0  9990
2 42758  43.0146 314.3371 0032872 304.2164  55.5571 15.17604872484241
SAOCOM 1A               
1 43641U 18076A   26079.96727017  .00000600  00000+0  81882-4 0  9999
2 43641  97.8891 267.9808 0001517  85.2762 274.8624 14.82153443403034
H-2A R/B                
1 43682U 18084L   26079.18319397  .00012444  00000+0  29373-3 0  9990
2 43682  98.8714 298.8177 0024556 349.1904  10.8807 15.41759166407398
SAOCOM 1B               
1 46265U 20059A   26079.93097536  .00000401  00000+0  56955-4 0  9993
2 46265  97.8889 267.0428 0001452  88.8349 271.3030 14.82146859300417
CSS (TIANHE)            
1 48274U 21035A   26079.59211288  .00017890  00000+0  20859-3 0  9997
2 48274  41.4664 141.7960 0005637 341.7172  18.3464 15.61215573279310
COSMOS 2550             
1 48865U 21056A   26079.66782365 -.00000188  00000+0  12592-6 0  9994
2 48865  67.1449   7.6743 0008199 268.9235  91.0980 15.33831857265142
CZ-2C R/B               
1 52794U 22058K   26079.82479622  .00035185  00000+0  49986-3 0  9998
2 52794  50.1873 260.9749 0041838 248.3972 111.2539 15.54982036211862
CZ-2C R/B               
1 54039U 22132E   26079.96438743  .00044064  00000+0  48429-3 0  9996
2 54039  97.2960  83.6320 0019371  55.4574 304.8510 15.62830031192135
GSLV R/B                
1 54149U 22138AN  26079.95226382  .00002579  00000+0  22138-3 0  9991
2 54149  87.3868 162.5924 0023989 109.1646 251.2185 14.96843183185614
XRISM                   
1 57800U 23137A   26079.80041790  .00005123  00000+0  28851-3 0  9996
2 57800  31.0013 211.7899 0007955 150.8820 209.2263 15.11615391139478
ACS3                    
1 59588U 24077B   26079.80054017  .00018685  00000+0  14837-1 0  9995
2 59588  97.2013  18.4159 0069029  50.6048 310.1202 13.90082374 95747
SZ-21 MODULE            
1 66515U 25246C   26079.19410922  .00026007  00000+0  21818-3 0  9991
2 66515  41.4734 138.6579 0000376 257.1443 102.9357 15.69318212 19723
